C/2022 U3 (Bok),h,07/28.6283/2024,33.6607,272.7869,189.1222,1.000940,4.826453,2000,7.5,4.0
# From MPEC 2023-W26
C/2022 U4 (Bok),e,52.0475,132.9161,88.9944,2749,0.0000068,0.99894600,0.0000,08/03.6204/2023,2000,g 10.5,4.0
# From MPEC 2024-H50
C/2022 V2 (Lemmon),e,98.9014,332.8638,168.9485,36.68130,0.0044365,0.94373822,1.8594,12/25.0/2024,2000,g 12.0,4.0
# From MPEC 2023-CD7
P/2022 W1 (Rankin),e,13.4653,38.8223,17.9040,6.973996,0.0535157,0.51661489,44.4631,12/25.0/2024,2000,g 12.5,4.0
# From MPEC 2024-EF7
C/2022 W2 (ATLAS),e,63.5094,320.4433,123.2969,344.0078,0.0001545,0.99091918,0.0000,03/08.7750/2023,2000,g 11.5,4.0
# From MPEC 2024-C04
C/2022 W3 (Leonard),e,103.5746,132.2893,116.5232,278.5333,0.0002120,0.99498247,0.0000,06/22.7814/2023,2000,g 13.0,4.0
# From MPEC 2023-M14
C/2022 Y1 (Hogan),e,18.8554,285.8825,174.8435,12.60273,0.0220296,0.76518933,16.7076,12/25.0/2024,2000,g  9.0,4.0
# From MPEC 2023-TM6
C/2022 Y2 (Lemmon),e,165.8846,216.3512,105.4213,19.69458,0.0112768,0.87099757,7.2580,12/25.0/2024,2000,g 13.5,4.0
# From MPEC 2024-GJ3
C/2023 A1 (Leonard),e,94.7388,318.2810,159.2494,221.0005,0.0003000,0.99169588,0.0000,03/18.6395/2023,2000,g 14.5,4.0
# From MPEC 2023-J95
C/2023 A2 (SWAN),e,94.7071,94.5049,142.5205,420.7266,0.0001142,0.99775156,0.0000,01/20.3634/2023,2000,g 13.5,4.0
# From MPEC 2024-X74
C/2023 A3 (Tsuchinshan-ATLAS),h,09/27.7416/2024,139.1108,21.5603,308.4932,1.000097,0.391451,2000,6.5,3.2
# From MPEC 2024-F34
P/2023 B1 (PANSTARRS),e,14.5887,78.5584,81.6051,7.062392,0.0525141,0.13057896,31.6582,12/25.0/2024,2000,g  5.5,4.0
# From MPEC 2023-XP6
C/2023 B2 (ATLAS),e,40.7688,218.1085,317.3609,590.0381,0.0000688,0.99704872,0.0000,03/10.5337/2023,2000,g 14.5,4.0
# From MPEC 2023-F81
P/2023 B3 (PANSTARRS),e,9.1577,153.9939,240.3283,4.549015,0.1015846,0.12268167,159.5714,12/25.0/2024,2000,g 10.5,4.0
# From MPEC 2024-X74
C/2023 C2 (ATLAS),e,48.3206,301.0043,357.4563,2731,0.0000069,0.99913274,0.0000,11/16.8107/2024,2000,g  7.0,4.0
# From MPEC 2024-D33
C/2023 E1 (ATLAS),e,38.2804,164.5161,105.9660,19.30088,0.0116235,0.94675672,6.3120,12/25.0/2024,2000,g 15.5,4.0
# From MPEC 2023-N01
C/2023 F1 (PANSTARRS),e,131.6957,25.3062,216.7381,254.2900,0.0002431,0.99327572,0.0000,06/28.2414/2023,2000,g 16.0,4.0
# From MPEC 2024-UA9
C/2023 F3 (ATLAS),h,02/02.6371/2025,145.9637,109.4627,265.5312,1.003900,5.190794,2000,6.0,4.0
# From MPEC 2024-RQ6
C/2023 H1 (PANSTARRS),e,21.7818,292.6473,333.7623,762.3999,0.0000468,0.99416609,0.0000,11/28.7143/2024,2000,g  8.5,4.0
# From MPEC 2024-GJ3
C/2023 H2 (Lemmon),e,113.7525,217.0539,150.6676,244.9294,0.0002571,0.99634627,0.0000,10/29.1655/2023,2000,g 14.0,4.0
# From MPEC 2023-R20
C/2023 H3 (PANSTARRS),e,2.4891,55.0958,193.2837,13.61680,0.0196151,0.61574274,6.0895,12/25.0/2024,2000,g 10.0,4.0
# From MPEC 2023-SQ0
A/2023 H4,e,76.5850,230.8245,65.0126,145.2620,0.0005630,0.98538411,0.0000,08/08.8809/2023,2000,g 18.0,22.0
# From MPEC 2024-X74
C/2023 H5 (Lemmon),h,06/30.2041/2025,97.8572,159.4801,60.0869,1.000368,4.312764,2000,7.0,4.0
# From MPEC 2024-UA9
P/2023 JN16 (Lemmon),e,3.7026,11.8760,353.1535,2.695383,0.2227272,0.14680143,358.7518,12/25.0/2024,2000,g 14.0,4.0
# From MPEC 2024-GJ3
C/2023 K1 (ATLAS),e,137.9978,223.7028,337.4346,670.8164,0.0000567,0.99696064,0.0000,09/07.6665/2023,2000,g 13.0,4.0
# From MPEC 2023-N01
P/2023 M1 (PANSTARRS),e,12.2886,216.8603,79.6981,6.843463,0.0550542,0.58699826,20.7342,12/25.0/2024,2000,g 13.5,4.0
# From MPEC 2024-TD8
P/2023 M2 (PANSTARRS),e,19.7278,83.2498,243.2845,5.573717,0.0749008,0.36998213,38.7485,12/25.0/2024,2000,g 12.5,4.0
# From MPEC 2024-TP3
P/2023 M4 (ATLAS),e,7.5922,296.2909,320.5901,5.448535,0.0774969,0.27893277,76.3995,12/25.0/2024,2000,g  7.5,4.0
# From MPEC 2024-MB8
C/2023 P1 (Nishimura),e,132.4768,66.8456,116.2782,56.71583,0.0023075,0.99603800,0.0000,09/17.6459/2023,2000,g 10.0,4.0
# From MPEC 2024-X74
C/2023 Q1 (PANSTARRS),h,12/01.1428/2024,36.6428,7.1295,84.4156,1.005232,2.575703,2000,10.0,4.0
# From MPEC 2024-N80
C/2023 Q2 (PANSTARRS),e,104.0616,92.6795,171.7058,350.6021,0.0001501,0.99084589,0.0000,06/24.0074/2024,2000,g 11.5,4.0
# From MPEC 2024-X74
C/2023 R1 (PANSTARRS),h,04/13.5691/2026,149.3164,62.5559,144.2830,1.001938,3.569418,2000,6.0,4.0
# From MPEC 2024-L77
C/2023 R2 (PANSTARRS),h,08/12.1488/2024,30.6889,188.9103,337.3045,1.000235,0.905167,2000,10.5,4.0
# From MPEC 2023-UR6
A/2023 R3,e,12.0838,347.3485,86.9162,694.9399,0.0000538,0.99804586,0.0000,12/18.1937/2023,2000,g 20.0,22.0
# From MPEC 2024-X74
C/2023 RN3 (ATLAS),e,10.3530,207.0672,130.5592,10.17179,0.0303814,0.49092875,21.4094,12/25.0/2024,2000,g  7.5,4.0
# From MPEC 2024-X74
P/2023 S1,e,9.1570,317.2905,180.2870,3.845135,0.1307184,0.31869942,352.0122,12/25.0/2024,2000,g 11.5,4.0
# From MPEC 2023-XP6
C/2023 S2 (ATLAS),e,19.8626,229.8017,78.6553,201.8904,0.0003436,0.99475215,0.0000,10/16.1338/2023,2000,g 15.0,4.0
# From MPEC 2024-P23
C/2023 S3 (Lemmon),e,140.4971,233.8322,281.5572,28.47718,0.0064857,0.97086079,0.0000,01/19.6398/2024,2000,g 16.0,4.0
# From MPEC 2024-BE0
P/2023 T1 (PANSTARRS),e,6.6123,249.5759,202.8522,4.226166,0.1134447,0.33335869,24.5220,12/25.0/2024,2000,g 14.0,4.0
# From MPEC 2024-GJ3
C/2023 T2 (Borisov),e,48.5950,317.5307,111.2040,225.7228,0.0002906,0.99115840,0.0000,12/22.7842/2023,2000,g 14.5,4.0
# From MPEC 2024-X74
C/2023 T3 (Fuls),e,27.2221,246.0002,302.8463,793.4307,0.0000441,0.99552788,0.0000,01/25.3371/2025,2000,g  8.5,4.0
# From MPEC 2024-VB7
C/2023 TD22 (Lemmon),e,170.4898,5.5576,32.5381,48.24411,0.0029413,0.95114816,0.2932,12/25.0/2024,2000,g 12.5,4.0
# From MPEC 2024-X74
C/2023 U1 (Fuls),e,108.1457,305.8069,255.6302,2293,0.0000090,0.99783121,0.0000,10/12.7938/2024,2000,g  8.0,4.0
# From MPEC 2024-X74
C/2023 V1 (Lemmon),h,07/13.0367/2025,102.0136,15.0350,103.3125,1.000254,5.092569,2000,8.5,4.0
# From MPEC 2024-VJ2
P/2023 V2 (PANSTARRS),e,9.8881,95.4735,330.5336,7.225912,0.0507417,0.57042236,16.5007,12/25.0/2024,2000,g 13.5,4.0
# From MPEC 2024-A43
C/2023 V3 (PANSTARRS),e,40.5277,91.3168,291.8721,13.22851,0.0204851,0.66152208,10.3585,12/25.0/2024,2000,g 11.5,4.0
# From MPEC 2024-UQ8
C/2023 V4 (Camarasa-Duszanowicz),h,05/30.3732/2024,67.1303,66.3258,50.8613,1.001055,1.121772,2000,12.0,4.0
# From MPEC 2024-GJ3
C/2023 V5 (Leonard),h,12/13.8902/2023,73.5693,31.5194,56.9630,1.009384,0.846252,2000,21.5,4.0
# From MPEC 2024-UA9
P/2023 V6 (PANSTARRS),e,3.9709,189.7866,193.1173,5.308866,0.0805752,0.17624736,60.2276,12/25.0/2024,2000,g 11.5,4.0
# From MPEC 2024-GJ3
C/2023 X1 (Leonard),e,110.5872,137.0055,321.4638,156.9593,0.0005012,0.99394360,0.0000,10/18.0381/2023,2000,g 13.5,3.2
# From MPEC 2024-X74
C/2023 X2 (Lemmon),h,12/27.6236/2025,76.9926,66.3096,64.6985,1.000839,5.090346,2000,8.5,3.2
# From MPEC 2024-A43
P/2023 X3 (PANSTARRS),e,4.4834,62.0118,40.8372,4.245489,0.1126711,0.28623301,27.8272,12/25.0/2024,2000,g 15.5,4.0
# From MPEC 2024-JU4
C/2023 X4 (Hogan),e,11.5945,28.7672,100.5600,9.915495,0.0315669,0.63106656,6.7592,12/25.0/2024,2000,g 12.0,4.0
# From MPEC 2024-DA2
C/2023 X7 (PANSTARRS),h,05/15.0137/2025,69.0615,119.2039,354.3704,1.002693,4.820504,2000,9.0,4.0
# From MPEC 2024-JU4
P/2023 Y1 (Gibbs),e,6.3842,78.8556,51.4574,3.749499,0.1357514,0.44529135,53.1007,12/25.0/2024,2000,g 17.0,4.0
# From MPEC 2024-F34
P/2023 Y2 (Gibbs),e,6.9929,79.2275,16.8668,3.746248,0.1359281,0.39229763,68.3681,12/25.0/2024,2000,g 15.5,4.0
# From MPEC 2024-X74
C/2024 A1 (ATLAS),h,06/13.7172/2025,94.4469,112.1410,353.3101,1.001570,3.875389,2000,7.0,4.0
# From MPEC 2024-X74
C/2024 A2 (ATLAS),e,119.1169,78.1670,295.5584,32.57720,0.0053007,0.94226320,1.2726,12/25.0/2024,2000,g 12.5,4.0
# From MPEC 2024-X74
C/2024 B1 (Lemmon),h,10/07.7038/2024,70.9041,79.1878,66.2100,1.000848,1.633712,2000,13.0,4.0
# From MPEC 2024-X74
C/2024 B2 (Lemmon),e,99.8489,294.3790,130.3403,3618,0.0000045,0.99887296,0.0000,10/06.0844/2023,2000,g 11.5,4.0
# From MPEC 2024-M41
C/2024 C1 (PANSTARRS),e,14.2269,83.8087,94.4665,10.57064,0.0286782,0.58252962,3.3304,12/25.0/2024,2000,g 11.5,4.0
# From MPEC 2024-JU4
C/2024 C2 (PANSTARRS),e,27.2843,66.4411,87.5444,16.20964,0.0151023,0.44530772,358.8602,12/25.0/2024,2000,g  6.0,4.0
# From MPEC 2024-GJ3
C/2024 C3 (PANSTARRS),e,22.4595,359.7086,159.6582,11.65782,0.0247616,0.42419620,10.2205,12/25.0/2024,2000,g  9.0,4.0
# From MPEC 2024-Q20
C/2024 C4 (ATLAS),e,79.2855,220.6818,321.5097,83.73911,0.0012862,0.98243456,0.0000,01/30.1922/2024,2000,g 14.5,4.0
# From MPEC 2024-EG1
A/2024 D1,e,132.4469,179.6609,125.7533,1728,0.0000137,0.99612222,0.0000,12/05.2216/2027,2000,g 11.0,2.0
# From MPEC 2024-X74
C/2024 E1 (Wierzchos),h,01/20.7679/2026,75.2376,108.0856,243.6469,1.000032,0.565669,2000,7.0,4.0
# From MPEC 2024-JU4
C/2024 E2 (Bok),e,155.6468,135.6498,358.0744,51.61423,0.0026580,0.85095416,1.1367,12/25.0/2024,2000,g  8.0,4.0
# From MPEC 2024-JU4
P/2024 F1 (PANSTARRS),e,7.0056,251.5413,229.5570,3.443388,0.1542500,0.45993887,65.7561,12/25.0/2024,2000,g 16.0,4.0
# From MPEC 2024-Q20
C/2024 F2 (PANSTARRS),e,13.7416,138.9434,112.9030,9.947705,0.0314137,0.60109356,4.6783,12/25.0/2024,2000,g 11.0,4.0
# From MPEC 2024-UA9
P/2024 FG9 (Nanshan-Hahn),e,1.7313,253.0426,245.9197,3.256915,0.1676851,0.50984348,36.6620,12/25.0/2024,2000,g 14.0,4.0
# From MPEC 2024-PC5
C/2024 G1 (Wierzchos),e,95.3991,30.6016,128.2231,122.2693,0.0007290,0.96785608,0.0473,12/25.0/2024,2000,g 10.0,4.0
# From MPEC 2024-JU4
C/2024 G2 (ATLAS),e,122.1288,171.3995,328.7892,888.6668,0.0000372,0.99398453,0.0000,06/13.7492/2025,2000,g  7.0,4.0
# From MPEC 2024-X74
C/2024 G3 (ATLAS),h,01/13.4353/2025,116.8467,220.3376,108.1242,1.000003,0.093537,2000,9.0,4.0
# From MPEC 2024-P23
C/2024 G4 (PANSTARRS),e,33.0264,152.9904,131.4282,2973,0.0000061,0.99835173,0.0000,03/21.7284/2026,2000,g  8.0,4.0
# From MPEC 2024-JC6
C/2024 G5 (Leonard),e,50.3877,316.3968,209.5670,550.0374,0.0000764,0.99463151,0.0000,09/07.0130/2024,2000,g 13.0,4.0
# From MPEC 2024-RQ6
C/2024 G6 (ATLAS),h,02/20.9042/2026,120.4580,250.9518,23.4559,1.002354,6.429233,2000,5.5,4.0
# From MPEC 2024-Q20
